ONEWEB-0588             
1 55153U 23004P   26202.10090101 -.00000019  00000+0 -80100-4 0  9996
2 55153  87.9191 328.7241 0002040  84.9061 275.2304 13.18687025174160
ONEWEB-0598             
1 55154U 23004Q   26202.18861683 -.00000351  00000+0 -10276-2 0  9990
2 55154  87.8889  14.2977 0002551  95.5140 264.6279 13.11415778170357
ONEWEB-0599             
1 55155U 23004R   26201.89243081  .00000028  00000+0  39316-4 0  9991
2 55155  87.9152 359.1590 0001947 100.9004 259.2346 13.17647689171925
ONEWEB-0614             
1 55156U 23004S   26202.03093740 -.00000132  00000+0 -40725-3 0  9997
2 55156  87.8886  14.3369 0001675  85.5411 274.5908 13.11414937170274
ONEWEB-0616             
1 55157U 23004T   26201.93461660 -.00000011  00000+0 -61651-4 0  9994
2 55157  87.9153 359.1547 0002033 121.2911 238.8420 13.17647758172148
ONEWEB-0617             
1 55158U 23004U   26202.01906432  .00000358  00000+0  97436-3 0  9997
2 55158  87.8893  14.3324 0001781  80.1051 280.0278 13.11416486170299
ONEWEB-0618             
1 55159U 23004V   26201.91551625  .00004425  00000+0  24543-3 0  9994
2 55159  86.9106 163.9395 0013120 155.3167 204.8704 15.13437732187364
ONEWEB-0619             
1 55160U 23004W   26202.19448705  .00000081  00000+0  17632-3 0  9996
2 55160  87.9165 359.0868 0001419  95.5265 264.6028 13.17647931172078
ONEWEB-0620             
1 55161U 23004X   26202.01398741  .00000448  00000+0  12295-2 0  9998
2 55161  87.8886  14.3399 0002093  89.4125 270.7242 13.11416332170262
ONEWEB-0621             
1 55162U 23004Y   26202.19370425 -.00000447  00000+0 -12962-2 0  9999
2 55162  87.8894  14.2962 0001638  86.1550 273.9765 13.11415690170268
ONEWEB-0622             
1 55163U 23004Z   26202.19878967 -.00000552  00000+0 -15922-2 0  9990
2 55163  87.8898  14.2979 0001978  69.9245 290.2095 13.11416261170250
ONEWEB-0623             
1 55164U 23004AA  26202.18943308  .00000026  00000+0  33629-4 0  9992
2 55164  87.9151 359.1139 0001405  71.2309 288.8975 13.17648479172060
ONEWEB-0624             
1 55165U 23004AB  26201.95546631 -.00000313  00000+0 -89805-3 0  9992
2 55165  87.8974 343.8659 0001747  92.4893 267.6436 13.12928405172503
ONEWEB-0625             
1 55166U 23004AC  26202.17930457  .00000000  00000+0 -32933-4 0  9994
2 55166  87.9154 359.1123 0001787  99.3045 260.8289 13.17647225172054
ONEWEB-0626             
1 55167U 23004AD  26201.94138261 -.00000037  00000+0 -12906-3 0  9990
2 55167  87.9153 359.1592 0002188  96.8381 263.2999 13.17647837172026
ONEWEB-0627             
1 55168U 23004AE  26202.15737643 -.00000066  00000+0 -20441-3 0  9999
2 55168  87.9153 359.1168 0001560  80.6324 279.4984 13.17648350172054
